[{"OBJECT_NAME":"STARLINK-11328 [DTC]","OBJECT_ID":"2024-204G","EPOCH":"2026-02-12T05:17:46.592160","MEAN_MOTION":15.69710656,"ECCENTRICITY":0.00010555,"INCLINATION":53.1583,"RA_OF_ASC_NODE":121.8726,"ARG_OF_PERICENTER":97.7535,"MEAN_ANOMALY":262.3602,"EPHEMERIS_TYPE":0,"CLASSIFICATION_TYPE":"U","NORAD_CAT_ID":61880,"ELEMENT_SET_NO":999,"REV_AT_EPOCH":7291,"BSTAR":6.933145e-6,"MEAN_MOTION_DOT":2.51e-6,"MEAN_MOTION_DDOT":0},{"OBJECT_NAME":"STARLINK-11329 [DTC]","OBJECT_ID":"2024-204H","EPOCH":"2026-02-12T05:10:43.546656","MEAN_MOTION":15.69699407,"ECCENTRICITY":0.00010793,"INCLINATION":53.1592,"RA_OF_ASC_NODE":121.8418,"ARG_OF_PERICENTER":97.3171,"MEAN_ANOMALY":262.797,"EPHEMERIS_TYPE":0,"CLASSIFICATION_TYPE":"U","NORAD_CAT_ID":61881,"ELEMENT_SET_NO":999,"REV_AT_EPOCH":7291,"BSTAR":-1.505632e-6,"MEAN_MOTION_DOT":-7.71e-6,"MEAN_MOTION_DDOT":0},{"OBJECT_NAME":"STARLINK-11398 [DTC]","OBJECT_ID":"2024-204J","EPOCH":"2026-02-11T13:46:47.995104","MEAN_MOTION":15.69722996,"ECCENTRICITY":0.00011021,"INCLINATION":53.1586,"RA_OF_ASC_NODE":124.9479,"ARG_OF_PERICENTER":71.5111,"MEAN_ANOMALY":288.6027,"EPHEMERIS_TYPE":0,"CLASSIFICATION_TYPE":"U","NORAD_CAT_ID":61882,"ELEMENT_SET_NO":999,"REV_AT_EPOCH":7281,"BSTAR":1.9671035e-5,"MEAN_MOTION_DOT":1.796e-5,"MEAN_MOTION_DDOT":0},{"OBJECT_NAME":"STARLINK-11383 [DTC]","OBJECT_ID":"2024-204K","EPOCH":"2026-02-11T12:01:00.056640","MEAN_MOTION":15.69714743,"ECCENTRICITY":0.00017723,"INCLINATION":53.1598,"RA_OF_ASC_NODE":125.2037,"ARG_OF_PERICENTER":47.8161,"MEAN_ANOMALY":312.3008,"EPHEMERIS_TYPE":0,"CLASSIFICATION_TYPE":"U","NORAD_CAT_ID":61883,"ELEMENT_SET_NO":999,"REV_AT_EPOCH":7280,"BSTAR":8.211951e-6,"MEAN_MOTION_DOT":4.05e-6,"MEAN_MOTION_DDOT":0},{"OBJECT_NAME":"STARLINK-11359 [DTC]","OBJECT_ID":"2024-204L","EPOCH":"2026-02-12T04:56:35.857248","MEAN_MOTION":15.69705975,"ECCENTRICITY":0.00011549,"INCLINATION":53.1596,"RA_OF_ASC_NODE":121.777,"ARG_OF_PERICENTER":91.4835,"MEAN_ANOMALY":268.6315,"EPHEMERIS_TYPE":0,"CLASSIFICATION_TYPE":"U","NORAD_CAT_ID":61884,"ELEMENT_SET_NO":999,"REV_AT_EPOCH":7291,"BSTAR":-9.261318e-6,"MEAN_MOTION_DOT":-1.71e-5,"MEAN_MOTION_DDOT":0},{"OBJECT_NAME":"STARLINK-11301 [DTC]","OBJECT_ID":"2024-204M","EPOCH":"2026-02-12T04:42:28.037376","MEAN_MOTION":15.69698545,"ECCENTRICITY":0.0001258,"INCLINATION":53.1595,"RA_OF_ASC_NODE":121.7118,"ARG_OF_PERICENTER":114.4545,"MEAN_ANOMALY":245.6604,"EPHEMERIS_TYPE":0,"CLASSIFICATION_TYPE":"U","NORAD_CAT_ID":61885,"ELEMENT_SET_NO":999,"REV_AT_EPOCH":7291,"BSTAR":4.282701e-6,"MEAN_MOTION_DOT":-7.0e-7,"MEAN_MOTION_DDOT":0},{"OBJECT_NAME":"STARLINK-11351 [DTC]","OBJECT_ID":"2024-204N","EPOCH":"2026-02-11T11:46:51.955968","MEAN_MOTION":15.69706517,"ECCENTRICITY":0.00011949,"INCLINATION":53.1587,"RA_OF_ASC_NODE":125.1282,"ARG_OF_PERICENTER":130.1256,"MEAN_ANOMALY":229.9867,"EPHEMERIS_TYPE":0,"CLASSIFICATION_TYPE":"U","NORAD_CAT_ID":61886,"ELEMENT_SET_NO":999,"REV_AT_EPOCH":7280,"BSTAR":1.5962822e-5,"MEAN_MOTION_DOT":1.345e-5,"MEAN_MOTION_DDOT":0},{"OBJECT_NAME":"STARLINK-32410","OBJECT_ID":"2024-204P","EPOCH":"2026-02-11T23:46:23.507904","MEAN_MOTION":15.30194731,"ECCENTRICITY":0.00014689,"INCLINATION":53.1584,"RA_OF_ASC_NODE":246.3964,"ARG_OF_PERICENTER":124.2711,"MEAN_ANOMALY":235.8429,"EPHEMERIS_TYPE":0,"CLASSIFICATION_TYPE":"U","NORAD_CAT_ID":61887,"ELEMENT_SET_NO":999,"REV_AT_EPOCH":7116,"BSTAR":5.1847635e-5,"MEAN_MOTION_DOT":1.176e-5,"MEAN_MOTION_DDOT":0},{"OBJECT_NAME":"STARLINK-32377","OBJECT_ID":"2024-204Q","EPOCH":"2026-02-12T02:43:51.029184","MEAN_MOTION":15.30192689,"ECCENTRICITY":0.00013013,"INCLINATION":53.1584,"RA_OF_ASC_NODE":245.7421,"ARG_OF_PERICENTER":112.2225,"MEAN_ANOMALY":247.8913,"EPHEMERIS_TYPE":0,"CLASSIFICATION_TYPE":"U","NORAD_CAT_ID":61888,"ELEMENT_SET_NO":999,"REV_AT_EPOCH":7117,"BSTAR":0.00010886442,"MEAN_MOTION_DOT":2.866e-5,"MEAN_MOTION_DDOT":0},{"OBJECT_NAME":"STARLINK-32292","OBJECT_ID":"2024-204R","EPOCH":"2026-02-11T20:51:57.861216","MEAN_MOTION":15.30191665,"ECCENTRICITY":0.0001145,"INCLINATION":53.1583,"RA_OF_ASC_NODE":247.0589,"ARG_OF_PERICENTER":103.5996,"MEAN_ANOMALY":256.5133,"EPHEMERIS_TYPE":0,"CLASSIFICATION_TYPE":"U","NORAD_CAT_ID":61889,"ELEMENT_SET_NO":999,"REV_AT_EPOCH":7114,"BSTAR":1.0878e-5,"MEAN_MOTION_DOT":-3.7e-7,"MEAN_MOTION_DDOT":0},{"OBJECT_NAME":"STARLINK-32501","OBJECT_ID":"2024-204S","EPOCH":"2026-02-11T22:48:48.737376","MEAN_MOTION":15.30190795,"ECCENTRICITY":0.0001673,"INCLINATION":53.1591,"RA_OF_ASC_NODE":246.8538,"ARG_OF_PERICENTER":95.1976,"MEAN_ANOMALY":264.9216,"EPHEMERIS_TYPE":0,"CLASSIFICATION_TYPE":"U","NORAD_CAT_ID":61890,"ELEMENT_SET_NO":999,"REV_AT_EPOCH":7115,"BSTAR":2.4628e-5,"MEAN_MOTION_DOT":3.7e-6,"MEAN_MOTION_DDOT":0},{"OBJECT_NAME":"STARLINK-32383","OBJECT_ID":"2024-204T","EPOCH":"2026-02-11T21:05:37.942368","MEAN_MOTION":15.30212742,"ECCENTRICITY":0.0001244,"INCLINATION":53.1604,"RA_OF_ASC_NODE":247.1137,"ARG_OF_PERICENTER":68.6229,"MEAN_ANOMALY":291.4904,"EPHEMERIS_TYPE":0,"CLASSIFICATION_TYPE":"U","NORAD_CAT_ID":61891,"ELEMENT_SET_NO":999,"REV_AT_EPOCH":7114,"BSTAR":-6.1364e-5,"MEAN_MOTION_DOT":-2.177e-5,"MEAN_MOTION_DDOT":0},{"OBJECT_NAME":"STARLINK-32239","OBJECT_ID":"2024-204U","EPOCH":"2026-02-11T22:59:26.723616","MEAN_MOTION":15.30192527,"ECCENTRICITY":0.0001322,"INCLINATION":53.1592,"RA_OF_ASC_NODE":246.902,"ARG_OF_PERICENTER":92.8996,"MEAN_ANOMALY":267.2156,"EPHEMERIS_TYPE":0,"CLASSIFICATION_TYPE":"U","NORAD_CAT_ID":61892,"ELEMENT_SET_NO":999,"REV_AT_EPOCH":7115,"BSTAR":2.4184e-5,"MEAN_MOTION_DOT":3.57e-6,"MEAN_MOTION_DDOT":0},{"OBJECT_NAME":"STARLINK-32489","OBJECT_ID":"2024-204V","EPOCH":"2026-02-11T17:05:51.634752","MEAN_MOTION":15.30200563,"ECCENTRICITY":0.00011603,"INCLINATION":53.1582,"RA_OF_ASC_NODE":247.5037,"ARG_OF_PERICENTER":95.8653,"MEAN_ANOMALY":264.248,"EPHEMERIS_TYPE":0,"CLASSIFICATION_TYPE":"U","NORAD_CAT_ID":61893,"ELEMENT_SET_NO":999,"REV_AT_EPOCH":7111,"BSTAR":5.2743763e-5,"MEAN_MOTION_DOT":1.203e-5,"MEAN_MOTION_DDOT":0},{"OBJECT_NAME":"STARLINK-32303","OBJECT_ID":"2024-207A","EPOCH":"2026-02-12T03:07:29.140032","MEAN_MOTION":15.27608647,"ECCENTRICITY":0.00016858,"INCLINATION":42.9982,"RA_OF_ASC_NODE":66.0327,"ARG_OF_PERICENTER":177.2235,"MEAN_ANOMALY":182.8626,"EPHEMERIS_TYPE":0,"CLASSIFICATION_TYPE":"U","NORAD_CAT_ID":61912,"ELEMENT_SET_NO":999,"REV_AT_EPOCH":7140,"BSTAR":0.0010772798,"MEAN_MOTION_DOT":0.00029527,"MEAN_MOTION_DDOT":0},{"OBJECT_NAME":"STARLINK-32434","OBJECT_ID":"2024-207B","EPOCH":"2026-02-12T02:12:11.587392","MEAN_MOTION":15.27607078,"ECCENTRICITY":3.884e-5,"INCLINATION":42.9932,"RA_OF_ASC_NODE":66.6148,"ARG_OF_PERICENTER":178.4882,"MEAN_ANOMALY":181.5971,"EPHEMERIS_TYPE":0,"CLASSIFICATION_TYPE":"U","NORAD_CAT_ID":61913,"ELEMENT_SET_NO":999,"REV_AT_EPOCH":7080,"BSTAR":0.0011948455,"MEAN_MOTION_DOT":0.00032791,"MEAN_MOTION_DDOT":0},{"OBJECT_NAME":"STARLINK-32460","OBJECT_ID":"2024-207C","EPOCH":"2026-02-12T02:26:46.532544","MEAN_MOTION":15.2760131,"ECCENTRICITY":9.501e-5,"INCLINATION":42.9981,"RA_OF_ASC_NODE":65.8224,"ARG_OF_PERICENTER":189.7757,"MEAN_ANOMALY":170.3076,"EPHEMERIS_TYPE":0,"CLASSIFICATION_TYPE":"U","NORAD_CAT_ID":61914,"ELEMENT_SET_NO":999,"REV_AT_EPOCH":7081,"BSTAR":0.00076764647,"MEAN_MOTION_DOT":0.00020936,"MEAN_MOTION_DDOT":0},{"OBJECT_NAME":"STARLINK-32559","OBJECT_ID":"2024-207D","EPOCH":"2026-02-12T02:47:07.673856","MEAN_MOTION":15.27611561,"ECCENTRICITY":0.00014162,"INCLINATION":43.0024,"RA_OF_ASC_NODE":65.9327,"ARG_OF_PERICENTER":216.4367,"MEAN_ANOMALY":143.6389,"EPHEMERIS_TYPE":0,"CLASSIFICATION_TYPE":"U","NORAD_CAT_ID":61915,"ELEMENT_SET_NO":999,"REV_AT_EPOCH":7081,"BSTAR":0.0012986727,"MEAN_MOTION_DOT":0.00035682,"MEAN_MOTION_DDOT":0},{"OBJECT_NAME":"STARLINK-32541","OBJECT_ID":"2024-207E","EPOCH":"2026-02-12T03:41:58.490016","MEAN_MOTION":15.27578126,"ECCENTRICITY":0.00012822,"INCLINATION":42.9998,"RA_OF_ASC_NODE":69.6776,"ARG_OF_PERICENTER":245.3663,"MEAN_ANOMALY":114.7055,"EPHEMERIS_TYPE":0,"CLASSIFICATION_TYPE":"U","NORAD_CAT_ID":61916,"ELEMENT_SET_NO":999,"REV_AT_EPOCH":7077,"BSTAR":0.00098360213,"MEAN_MOTION_DOT":0.00026902,"MEAN_MOTION_DDOT":0},{"OBJECT_NAME":"STARLINK-32544","OBJECT_ID":"2024-207F","EPOCH":"2026-02-12T02:58:14.240352","MEAN_MOTION":15.27593629,"ECCENTRICITY":0.00015103,"INCLINATION":43.0014,"RA_OF_ASC_NODE":65.9903,"ARG_OF_PERICENTER":268.9625,"MEAN_ANOMALY":91.1054,"EPHEMERIS_TYPE":0,"CLASSIFICATION_TYPE":"U","NORAD_CAT_ID":61917,"ELEMENT_SET_NO":999,"REV_AT_EPOCH":7081,"BSTAR":0.00046001493,"MEAN_MOTION_DOT":0.00012423,"MEAN_MOTION_DDOT":0},{"OBJECT_NAME":"STARLINK-32555","OBJECT_ID":"2024-207G","EPOCH":"2026-02-12T02:24:26.586144","MEAN_MOTION":15.27600604,"ECCENTRICITY":8.091e-5,"INCLINATION":42.9958,"RA_OF_ASC_NODE":70.134,"ARG_OF_PERICENTER":240.748,"MEAN_ANOMALY":119.329,"EPHEMERIS_TYPE":0,"CLASSIFICATION_TYPE":"U","NORAD_CAT_ID":61918,"ELEMENT_SET_NO":999,"REV_AT_EPOCH":7076,"BSTAR":0.0011375375,"MEAN_MOTION_DOT":0.00031193,"MEAN_MOTION_DDOT":0},{"OBJECT_NAME":"STARLINK-32547","OBJECT_ID":"2024-207H","EPOCH":"2026-02-12T02:28:37.435584","MEAN_MOTION":15.27609152,"ECCENTRICITY":9.308e-5,"INCLINATION":42.9988,"RA_OF_ASC_NODE":65.8332,"ARG_OF_PERICENTER":211.9757,"MEAN_ANOMALY":148.1038,"EPHEMERIS_TYPE":0,"CLASSIFICATION_TYPE":"U","NORAD_CAT_ID":61919,"ELEMENT_SET_NO":999,"REV_AT_EPOCH":7080,"BSTAR":0.00088449684,"MEAN_MOTION_DOT":0.00024179,"MEAN_MOTION_DDOT":0},{"OBJECT_NAME":"STARLINK-32616","OBJECT_ID":"2024-207J","EPOCH":"2026-02-12T03:18:35.554464","MEAN_MOTION":15.27602385,"ECCENTRICITY":0.00015426,"INCLINATION":43.0005,"RA_OF_ASC_NODE":66.0948,"ARG_OF_PERICENTER":256.1908,"MEAN_ANOMALY":103.8772,"EPHEMERIS_TYPE":0,"CLASSIFICATION_TYPE":"U","NORAD_CAT_ID":61920,"ELEMENT_SET_NO":999,"REV_AT_EPOCH":7081,"BSTAR":0.0013871871,"MEAN_MOTION_DOT":0.00038134,"MEAN_MOTION_DDOT":0}]
